     3.04           N: GNSS NAV DATA    E: GALILEO          RINEX VERSION / TYPE
TPP 5.1.1                               20240331 235934 UTC PGM / RUN BY / DATE 
                                                            COMMENT             
                                                            COMMENT             
                                                            COMMENT             
GAL     .2608E-07   .1490E-07  -.1192E-06   .0000E+00       IONOSPHERIC CORR    
GAUT  -.2793967724E-08 -.710542736E-14 319488 2308          TIME SYSTEM CORR    
    18  2308     1                                          LEAP SECONDS        
                                                            END OF HEADER       
E27 2024 04 01 13 20 00 -.313396041747E-03 -.963495949691E-11  .000000000000E+00
      .970000000000E+02  .795000000000E+02  .314548816506E-08  .114114127922E+01
      .374019145966E-05  .224436051212E-03  .861845910549E-05  .544060924911E+04
      .134400000000E+06  .167638063431E-07  .958306870471E+00  .353902578354E-07
      .966503340069E+00  .160562500000E+03  .627982733087E+00 -.537593821512E-08
     -.303941231801E-09  .257000000000E+03  .230800000000E+04  .000000000000E+00
      .312000000000E+01  .000000000000E+00 -.931322574615E-09 -.116415321827E-08
      .135085000000E+06  .000000000000E+00  .000000000000E+00  .000000000000E+00
E04 2024 04 01 13 20 00 -.363327679224E-03 -.895283847058E-11  .000000000000E+00
      .970000000000E+02 -.843437500000E+02  .312191575461E-08  .289959601053E+01
     -.397861003876E-05  .380037236027E-03  .819750130177E-05  .544062364388E+04
      .134400000000E+06  .279396772385E-07 -.114037439415E+01  .912696123123E-07
      .960579304509E+00  .160281250000E+03 -.140496225498E+01 -.545344144344E-08
      .468590947265E-09  .257000000000E+03  .230800000000E+04  .000000000000E+00
      .312000000000E+01  .000000000000E+00 -.651925802231E-08 -.721774995327E-08
      .135085000000E+06  .000000000000E+00  .000000000000E+00  .000000000000E+00
E02 2024 04 01 13 20 00  .115939532407E-03  .308375547320E-11  .000000000000E+00
      .970000000000E+02  .697500000000E+02  .314905974241E-08  .260345396934E+01
      .320747494698E-05  .414448673837E-03  .876002013683E-05  .544061522484E+04
      .134400000000E+06 -.372529029846E-07  .961422232055E+00 -.372529029846E-08
      .966935086693E+00  .154218750000E+03  .752399446514E+00 -.544094092274E-08
     -.334656796942E-09  .257000000000E+03  .230800000000E+04  .000000000000E+00
      .312000000000E+01  .000000000000E+00 -.535510480404E-08 -.675208866596E-08
      .135085000000E+06  .000000000000E+00  .000000000000E+00  .000000000000E+00
E34 2024 04 01 13 20 00 -.103226338979E-03 -.213162820728E-11  .000000000000E+00
      .970000000000E+02 -.550000000000E+01  .241545775637E-08 -.155874584048E+00
     -.264495611191E-06  .148489256389E-03  .273622572422E-05  .544061450386E+04
      .134400000000E+06 -.149011611938E-07  .304822081438E+01 -.931322574615E-08
      .100026440843E+01  .300562500000E+03  .141697410270E+01 -.547844248483E-08
     -.750031241812E-10  .257000000000E+03  .230800000000E+04  .000000000000E+00
      .312000000000E+01  .000000000000E+00  .279396772385E-08  .325962901115E-08
      .135085000000E+06  .000000000000E+00  .000000000000E+00  .000000000000E+00
E03 2024 04 01 13 20 00 -.104264356196E-03 -.261479726760E-11  .000000000000E+00
      .970000000000E+02 -.681562500000E+02  .309370029361E-08 -.481790520623E+00
     -.300630927086E-05  .265094684437E-03  .821240246296E-05  .544060938072E+04
      .134400000000E+06 -.745058059692E-08 -.114048660290E+01 -.540167093277E-07
      .960541970840E+00  .161437500000E+03 -.366568921730E+00 -.547701385390E-08
      .402516766439E-09  .257000000000E+03  .230800000000E+04  .000000000000E+00
      .312000000000E+01  .000000000000E+00  .465661287308E-09  .232830643654E-09
      .135085000000E+06  .000000000000E+00  .000000000000E+00  .000000000000E+00
E07 2024 04 01 13 20 00 -.112139969133E-03 -.211741735256E-11  .000000000000E+00
      .970000000000E+02 -.577187500000E+02  .314405953413E-08 -.141618044478E+01
     -.279210507870E-05  .381009303965E-03  .889785587788E-05  .544060887909E+04
      .134400000000E+06 -.104308128357E-06 -.114042572356E+01  .167638063431E-07
      .960583700578E+00  .149687500000E+03 -.992428673952E+00 -.542844040205E-08
      .453590322429E-09  .257000000000E+03  .230800000000E+04  .000000000000E+00
      .312000000000E+01  .000000000000E+00  .232830643654E-09  .232830643654E-09
      .135085000000E+06  .000000000000E+00  .000000000000E+00  .000000000000E+00
E08 2024 04 01 13 20 00 -.248116964940E-03 -.605382410868E-11  .000000000000E+00
      .970000000000E+02 -.563125000000E+02  .308548566572E-08 -.967712740297E+00
     -.269338488579E-05  .296930898912E-03  .854209065437E-05  .544060935593E+04
      .134400000000E+06 -.204890966415E-07 -.114081948844E+01 -.577419996262E-07
      .966414283468E+00  .155437500000E+03 -.648240371231E+00 -.542665461337E-08
      .395730769489E-09  .257000000000E+03  .230800000000E+04  .000000000000E+00
      .312000000000E+01  .000000000000E+00 -.791624188423E-08 -.908039510250E-08
      .135085000000E+06  .000000000000E+00  .000000000000E+00  .000000000000E+00
E10 2024 04 01 13 20 00 -.613782322034E-03 -.289901436190E-11  .000000000000E+00
      .970000000000E+02  .503125000000E+01  .256332105832E-08  .204312501220E+01
      .227242708206E-06  .207042437978E-03  .155530869961E-05  .544061472321E+04
      .134400000000E+06 -.465661287308E-07  .304819313890E+01  .484287738800E-07
      .100027696758E+01  .325781250000E+03  .118144930536E+01 -.564559230444E-08
     -.589310261423E-10  .257000000000E+03  .230800000000E+04  .000000000000E+00
      .312000000000E+01  .000000000000E+00 -.349245965481E-08 -.325962901115E-08
      .135085000000E+06  .000000000000E+00  .000000000000E+00  .000000000000E+00
E11 2024 04 01 13 20 00  .310124596581E-02 -.508038056068E-10 -.520417042793E-17
      .970000000000E+02  .331250000000E+01  .257867884090E-08  .214571305683E+01
      .931322574616E-08  .511913676746E-03  .158324837685E-05  .544060972214E+04
      .134400000000E+06 -.186264514923E-08  .305128950742E+01  .106170773506E-06
      .997315714180E+00  .323656250000E+03  .653515805968E+00 -.562094842078E-08
     -.964325882329E-10  .257000000000E+03  .230800000000E+04  .000000000000E+00
      .312000000000E+01  .000000000000E+00 -.167638063431E-07 -.186264514923E-07
      .135085000000E+06  .000000000000E+00  .000000000000E+00  .000000000000E+00
E12 2024 04 01 13 20 00 -.974537397269E-03 -.171667124960E-10  .000000000000E+00
      .970000000000E+02 -.200000000000E+01  .260296556682E-08 -.292707529989E+01
     -.782310962677E-07  .501586124301E-03  .151805579662E-05  .544061452866E+04
      .134400000000E+06 -.465661287308E-07  .305128965956E+01  .465661287308E-07
      .997327815438E+00  .326437500000E+03  .243104632341E+00 -.566095008701E-08
     -.335728270144E-10  .257000000000E+03  .230800000000E+04  .000000000000E+00
      .312000000000E+01  .000000000000E+00 -.142026692629E-07 -.146683305502E-07
      .135085000000E+06  .000000000000E+00  .000000000000E+00  .000000000000E+00
E18 2024 04 01 13 20 00  .501561211422E-03  .431299440606E-10  .000000000000E+00
      .970000000000E+02  .232218750000E+03  .350157442606E-08 -.234062151512E+01
      .117067247629E-04  .160615349072E+00  .366009771824E-05  .528940850449E+04
      .134400000000E+06 -.175274908543E-05  .204849410441E+01  .257417559624E-05
      .867773376141E+00  .320125000000E+03  .258578733174E+01 -.596739142295E-08
     -.328942273195E-09  .257000000000E+03  .230800000000E+04  .000000000000E+00
      .312000000000E+01  .144000000000E+03 -.512227416039E-08 -.651925802231E-08
      .135075000000E+06  .000000000000E+00  .000000000000E+00  .000000000000E+00
E26 2024 04 01 13 20 00  .413262809161E-03  .109992015496E-10  .000000000000E+00
      .970000000000E+02 -.236562500000E+02  .260689430190E-08 -.588207321767E+00
     -.112503767014E-05  .178802176379E-03  .138580799103E-05  .544060943604E+04
      .134400000000E+06 -.260770320892E-07  .305031896221E+01 -.912696123123E-07
      .993741343030E+00  .328125000000E+03 -.531890404605E+00 -.565202114365E-08
     -.109290266664E-09  .257000000000E+03  .230800000000E+04  .000000000000E+00
      .312000000000E+01  .000000000000E+00 -.721774995327E-08 -.838190317154E-08
      .135115000000E+06  .000000000000E+00  .000000000000E+00  .000000000000E+00
E33 2024 04 01 13 20 00  .982673373073E-05  .511590769747E-12  .000000000000E+00
      .970000000000E+02 -.131875000000E+02  .253117686225E-08 -.136041138605E+01
     -.575557351112E-06  .835878308862E-04  .130571424961E-05  .544061377335E+04
      .134400000000E+06 -.838190317154E-07  .305001796243E+01 -.521540641785E-07
      .100044061545E+01  .333531250000E+03 -.498777302157E+00 -.560344769180E-08
     -.950039572961E-10  .257000000000E+03  .230800000000E+04  .000000000000E+00
      .312000000000E+01  .000000000000E+00 -.698491930962E-08 -.791624188423E-08
      .135085000000E+06  .000000000000E+00  .000000000000E+00  .000000000000E+00
E24 2024 04 01 13 20 00 -.683386402670E-03 -.211031192521E-10  .000000000000E+00
      .970000000000E+02  .788750000000E+02  .323442044088E-08 -.233235284319E+01
      .371038913727E-05  .702104298398E-03  .893697142601E-05  .544061705589E+04
      .134400000000E+06 -.484287738800E-07  .961448767926E+00 -.745058059692E-08
      .964368714376E+00  .152875000000E+03  .973287284728E+00 -.545201281250E-08
     -.357872049664E-09  .257000000000E+03  .230800000000E+04  .000000000000E+00
      .312000000000E+01  .000000000000E+00 -.745058059692E-08 -.884756445885E-08
      .135475000000E+06  .000000000000E+00  .000000000000E+00  .000000000000E+00
